NORAD_CAT_ID,OBJECT_NAME,OBJECT_TYPE,EPOCH,MEAN_MOTION,ECCENTRICITY,INCLINATION,RA_OF_ASC_NODE,ARG_OF_PERICENTER,MEAN_ANOMALY,BSTAR,MEAN_MOTION_DOT,MEAN_MOTION_DDOT,TLE_LINE0,TLE_LINE1,TLE_LINE2,SEMIMAJOR_AXIS,PERIOD,APOGEE,PERIGEE,DECAYED
49165.0,STARLINK-3052,PAYLOAD,2024-03-22 20:53:25,14.98328853,0.0003003,69.9987,301.8259,269.8937,90.1878,0.00014459,1.633e-05,0.0,0 STARLINK-3052,1 49165U 21082AM  24082.87043292  .00001633  00000-0  14459-3 0  9998,2 49165  69.9987 301.8259 0003003 269.8937  90.1878 14.98328853139819,6950.196,96.107,574.149,569.974,0.0
49165.0,STARLINK-3052,PAYLOAD,2024-03-22 22:29:33,14.98329362,0.0003,69.9986,301.6576,269.9243,90.1572,0.00014865,1.681e-05,0.0,0 STARLINK-3052,1 49165U 21082AM  24082.93719265  .00001681  00000-0  14865-3 0  9999,2 49165  69.9986 301.6576 0003000 269.9243  90.1572 14.98329362139813,6950.195,96.107,574.145,569.975,0.0
49165.0,STARLINK-3052,PAYLOAD,2024-03-23 20:55:26,14.98330962,0.0002849,69.9987,299.3014,268.6919,91.3914,-3.7215e-05,-5.37e-06,0.0,0 STARLINK-3052,1 49165U 21082AM  24083.87183646 -.00000537  00000-0 -37215-4 0  9997,2 49165  69.9987 299.3014 0002849 268.6919  91.3914 14.98330962139967,6950.19,96.107,574.035,570.075,0.0
49165.0,STARLINK-3052,PAYLOAD,2024-03-23 22:31:34,14.98331233,0.0002828,69.9986,299.1329,268.9242,91.1593,-3.1384e-05,-4.67e-06,0.0,0 STARLINK-3052,1 49165U 21082AM  24083.93859605 -.00000467  00000-0 -31384-4 0  9992,2 49165  69.9986 299.1329 0002828 268.9242  91.1593 14.98331233139965,6950.189,96.107,574.02,570.089,0.0
49165.0,STARLINK-3052,PAYLOAD,2024-03-24 14:32:54,14.98330605,0.0002744,69.9985,297.4487,266.6998,93.3847,0.00012727,1.426e-05,0.0,0 STARLINK-3052,1 49165U 21082AM  24084.60619198  .00001426  00000-0  12727-3 0  9991,2 49165  69.9985 297.4487 0002744 266.6998  93.3847 14.98330605140061,6950.191,96.107,573.963,570.149,0.0
49165.0,STARLINK-3052,PAYLOAD,2024-03-24 20:57:26,14.98347633,0.0002748,69.998,296.7753,263.5573,96.5273,6.5551e-06,-1.5e-07,0.0,0 STARLINK-3052,1 49165U 21082AM  24084.87322482 -.00000015  00000-0  65551-5 0  9996,2 49165  69.9980 296.7753 0002748 263.5573  96.5273 14.98347633140116,6950.138,96.106,573.913,570.093,0.0
49165.0,STARLINK-3052,PAYLOAD,2024-03-24 22:33:34,14.98343053,0.000281,69.9981,296.6069,264.6032,95.4807,0.00014749,1.668e-05,0.0,0 STARLINK-3052,1 49165U 21082AM  24084.93998479  .00001668  00000-0  14749-3 0  9993,2 49165  69.9981 296.6069 0002810 264.6032  95.4807 14.98343053140111,6950.153,96.106,573.971,570.065,0.0
49165.0,STARLINK-3052,PAYLOAD,2024-03-25 12:58:47,14.98334137,0.0002649,69.9984,295.0941,263.6362,96.4495,0.0001442,1.628e-05,0.0,0 STARLINK-3052,1 49165U 21082AM  24085.54082832  .00001628  00000-0  14420-3 0  9990,2 49165  69.9984 295.0941 0002649 263.6362  96.4495 14.98334137140219,6950.18,96.107,573.886,570.204,0.0
49165.0,STARLINK-3052,PAYLOAD,2024-03-25 20:59:28,14.98324534,0.0002718,69.999,294.2499,270.5918,89.4929,8.9518e-05,9.75e-06,0.0,0 STARLINK-3052,1 49165U 21082AM  24085.87463565  .00000975  00000-0  89518-4 0  9997,2 49165  69.9990 294.2499 0002718 270.5918  89.4929 14.98324534140265,6950.21,96.107,573.964,570.186,0.0
49165.0,STARLINK-3052,PAYLOAD,2024-03-25 22:35:36,14.98322848,0.000265,69.9992,294.0831,264.7299,95.3557,6.1691e-05,6.43e-06,0.0,0 STARLINK-3052,1 49165U 21082AM  24085.94139726  .00000643  00000-0  61691-4 0  9998,2 49165  69.9992 294.0831 0002650 264.7299  95.3557 14.98322848140266,6950.215,96.107,573.922,570.238,0.0
49165.0,STARLINK-3052,PAYLOAD,2024-03-26 14:36:57,14.98330218,0.0002623,69.9989,292.3988,273.9057,86.1802,-9.0376e-05,-1.171e-05,0.0,0 STARLINK-3052,1 49165U 21082AM  24086.60899836 -.00001171  00000-0 -90376-4 0  9998,2 49165  69.9989 292.3988 0002623 273.9057  86.1802 14.98330218140362,6950.192,96.107,573.88,570.234,0.0
49165.0,STARLINK-3052,PAYLOAD,2024-03-26 21:01:29,14.98323334,0.0002754,69.9978,291.724,259.9612,100.1237,-4.1191e-05,-5.84e-06,0.0,0 STARLINK-3052,1 49165U 21082AM  24086.87604053 -.00000584  00000-0 -41191-4 0  9990,2 49165  69.9978 291.7240 0002754 259.9612 100.1237 14.98323334140416,6950.214,96.107,573.993,570.164,0.0
49165.0,STARLINK-3052,PAYLOAD,2024-03-26 22:37:37,14.98341091,0.0002619,69.9981,291.5566,267.5928,92.4931,-0.00031398,-3.838e-05,0.0,0 STARLINK-3052,1 49165U 21082AM  24086.94279614 -.00003838  00000-0 -31398-3 0  9991,2 49165  69.9981 291.5566 0002619 267.5928  92.4931 14.98341091140418,6950.159,96.106,573.844,570.203,0.0
49165.0,STARLINK-3052,PAYLOAD,2024-03-27 06:38:17,14.98338043,0.0003008,69.9977,290.7121,276.951,83.1307,-0.00014364,-1.807e-05,0.0,0 STARLINK-3052,1 49165U 21082AM  24087.27659428 -.00001807  00000-0 -14364-3 0  9991,2 49165  69.9977 290.7121 0003008 276.9510  83.1307 14.98338043140478,6950.168,96.106,574.124,569.942,0.0
49165.0,STARLINK-3052,PAYLOAD,2024-03-27 14:38:58,14.98326707,0.0002889,69.997,289.8706,273.5061,86.5768,3.9711e-05,3.81e-06,0.0,0 STARLINK-3052,1 49165U 21082AM  24087.61039721  .00000381  00000-0  39711-4 0  9995,2 49165  69.9970 289.8706 0002889 273.5061  86.5768 14.98326707140516,6950.203,96.107,574.076,570.06,0.0
49165.0,STARLINK-3052,PAYLOAD,2024-03-27 22:39:38,14.98331889,0.0002906,69.9986,289.0307,271.8894,88.1932,6.6074e-05,6.95e-06,0.0,0 STARLINK-3052,1 49165U 21082AM  24087.94419365  .00000695  00000-0  66074-4 0  9997,2 49165  69.9986 289.0307 0002906 271.8894  88.1932 14.98331889140560,6950.187,96.107,574.072,570.032,0.0
49165.0,STARLINK-3052,PAYLOAD,2024-03-28 21:05:31,14.98331827,0.0002952,69.9984,286.6741,267.9758,92.1063,8.3973e-05,9.09e-06,0.0,0 STARLINK-3052,1 49165U 21082AM  24088.87883341  .00000909  00000-0  83973-4 0  9994,2 49165  69.9984 286.6741 0002952 267.9758  92.1063 14.98331827140718,6950.187,96.107,574.104,570.001,0.0
49165.0,STARLINK-3052,PAYLOAD,2024-03-28 22:41:39,14.98331495,0.0002813,69.9985,286.5059,264.8099,95.2739,0.00012435,1.391e-05,0.0,0 STARLINK-3052,1 49165U 21082AM  24088.94559267  .00001391  00000-0  12435-3 0  9999,2 49165  69.9985 286.5059 0002813 264.8099  95.2739 14.98331495140715,6950.188,96.107,574.008,570.098,0.0
49165.0,STARLINK-3052,PAYLOAD,2024-03-29 13:06:51,14.98331442,0.0003063,69.9995,284.9901,270.383,89.6978,6.2248e-05,6.5e-06,0.0,0 STARLINK-3052,1 49165U 21082AM  24089.54643335  .00000650  00000-0  62248-4 0  9991,2 49165  69.9995 284.9901 0003063 270.3830  89.6978 14.98331442140801,6950.188,96.107,574.182,569.925,0.0
49165.0,STARLINK-3052,PAYLOAD,2024-03-29 21:07:32,14.98331903,0.0003027,69.9988,284.1496,270.3979,89.6833,4.4815e-05,4.42e-06,0.0,0 STARLINK-3052,1 49165U 21082AM  24089.88023341  .00000442  00000-0  44815-4 0  9996,2 49165  69.9988 284.1496 0003027 270.3979  89.6833 14.98331903140866,6950.187,96.107,574.156,569.948,0.0
49165.0,STARLINK-3052,PAYLOAD,2024-03-29 22:43:40,14.98334005,0.0003027,69.9987,283.9813,270.8877,89.1936,2.0363e-05,1.5e-06,0.0,0 STARLINK-3052,1 49165U 21082AM  24089.94699248  .00000150  00000-0  20363-4 0  9996,2 49165  69.9987 283.9813 0003027 270.8877  89.1936 14.98334005140862,6950.181,96.107,574.149,569.942,0.0
49165.0,STARLINK-3052,PAYLOAD,2024-03-30 13:08:52,14.98329859,0.0002956,70.0,282.4662,271.3522,88.7299,7.7893e-06,0.0,0.0,0 STARLINK-3052,1 49165U 21082AM  24090.54783391  .00000000  00000-0  77893-5 0  9992,2 49165  70.0000 282.4662 0002956 271.3522  88.7299 14.98329859140958,6950.193,96.107,574.113,570.004,0.0
49165.0,STARLINK-3052,PAYLOAD,2024-03-30 21:09:33,14.98329749,0.0002975,69.9999,281.6247,271.4446,88.6372,5.5132e-06,-2.7e-07,0.0,0 STARLINK-3052,1 49165U 21082AM  24090.88163456 -.00000027  00000-0  55132-5 0  9995,2 49165  69.9999 281.6247 0002975 271.4446  88.6372 14.98329749141016,6950.194,96.107,574.126,569.991,0.0
49165.0,STARLINK-3052,PAYLOAD,2024-03-30 22:45:41,14.98329419,0.0002979,69.9998,281.4563,271.4607,88.621,1.6111e-07,-9.1e-07,0.0,0 STARLINK-3052,1 49165U 21082AM  24090.94839492 -.00000091  00000-0  16111-6 0  9998,2 49165  69.9998 281.4563 0002979 271.4607  88.6210 14.98329419141012,6950.195,96.107,574.13,569.989,0.0
49165.0,STARLINK-3052,PAYLOAD,2024-03-31 14:47:01,14.98332094,0.0003009,69.9989,279.773,271.2739,88.8075,4.8699e-05,4.88e-06,0.0,0 STARLINK-3052,1 49165U 21082AM  24091.61599073  .00000488  00000-0  48699-4 0  9994,2 49165  69.9989 279.7730 0003009 271.2739  88.8075 14.98332094141112,6950.186,96.107,574.143,569.96,0.0
49165.0,STARLINK-3052,PAYLOAD,2024-03-31 22:47:41,14.98334488,0.0003007,69.9989,278.9313,271.1539,88.9275,6.1459e-05,6.4e-06,0.0,0 STARLINK-3052,1 49165U 21082AM  24091.94978844  .00000640  00000-0  61459-4 0  9996,2 49165  69.9989 278.9313 0003007 271.1539  88.9275 14.98334488141162,6950.179,96.107,574.134,569.954,0.0
49165.0,STARLINK-3052,PAYLOAD,2024-04-01 05:12:14,14.98329461,0.0002992,69.9988,278.258,271.306,88.7756,1.3753e-05,7.1e-07,0.0,0 STARLINK-3052,1 49165U 21082AM  24092.21683272  .00000071  00000-0  13753-4 0  9997,2 49165  69.9988 278.2580 0002992 271.3060  88.7756 14.98329461141216,6950.195,96.107,574.139,569.98,0.0
49165.0,STARLINK-3052,PAYLOAD,2024-04-01 13:12:55,14.98324224,0.0002972,69.9989,277.4164,270.6798,89.402,-2.3451e-05,-3.73e-06,0.0,0 STARLINK-3052,1 49165U 21082AM  24092.55063750 -.00000373  00000-0 -23451-4 0  9990,2 49165  69.9989 277.4164 0002972 270.6798  89.4020 14.98324224141252,6950.211,96.107,574.141,570.01,0.0
49165.0,STARLINK-3052,PAYLOAD,2024-04-02 11:38:47,14.9833278,0.0002879,69.9989,275.0605,265.5434,94.5396,2.3186e-05,1.84e-06,0.0,0 STARLINK-3052,1 49165U 21082AM  24093.48527199  .00000184  00000-0  23186-4 0  9998,2 49165  69.9989 275.0605 0002879 265.5434  94.5396 14.98332780141408,6950.184,96.107,574.05,570.048,0.0
49165.0,STARLINK-3052,PAYLOAD,2024-04-02 13:14:55,14.98332769,0.0002878,69.9989,274.8922,265.5281,94.5549,2.2192e-05,1.72e-06,0.0,0 STARLINK-3052,1 49165U 21082AM  24093.55203176  .00000172  00000-0  22192-4 0  9995,2 49165  69.9989 274.8922 0002878 265.5281  94.5549 14.98332769141403,6950.184,96.107,574.05,570.049,0.0
